{
  "type": "FeatureCollection",
  "features": [
    {
      "type": "Feature",
      "properties": {
        "norad_id": 34907,
        "name": "COSMOS 2251 DEB",
        "group": "cosmos-2251-debris",
        "lat": 14.100827403506507,
        "lon": 29.570934973307285,
        "alt_km": 406.22682466933384,
        "timestamp": "2025-12-23T05:02:12.425272+00:00",
        "meta_object_name": "COSMOS 2251 DEB",
        "meta_object_id": "1993-036ADC",
        "meta_epoch": "2025-12-21T12:42:42.511680",
        "meta_mean_motion": 15.49920012,
        "meta_eccentricity": 0.0018559,
        "meta_inclination": 73.9666,
        "meta_ra_of_asc_node": 29.1312,
        "meta_arg_of_pericenter": 328.4772,
        "meta_mean_anomaly": 31.5327,
        "meta_ephemeris_type": 0,
        "meta_classification_type": "U",
        "meta_norad_cat_id": 34907,
        "meta_element_set_no": 999,
        "meta_rev_at_epoch": 88109,
        "meta_bstar": 0.006372,
        "meta_mean_motion_dot": 0.00375951,
        "meta_mean_motion_ddot": 0,
        "tle_line1": "1 34907U 93036ADC 25355.52965870  .00375951  00000+0  63720-2 0  9995",
        "tle_line2": "2 34907  73.9666  29.1312 0018559 328.4772  31.5327 15.49920012881091"
      },
      "geometry": {
        "type": "Point",
        "coordinates": [
          29.570934973307285,
          14.100827403506507
        ]
      }
    },
    {
      "type": "Feature",
      "properties": {
        "norad_id": 34908,
        "name": "COSMOS 2251 DEB",
        "group": "cosmos-2251-debris",
        "lat": -49.938490882645354,
        "lon": -155.7122779167008,
        "alt_km": 797.1413110901221,
        "timestamp": "2025-12-23T05:02:12.425282+00:00",
        "meta_object_name": "COSMOS 2251 DEB",
        "meta_object_id": "1993-036ADD",
        "meta_epoch": "2025-12-22T07:59:02.454720",
        "meta_mean_motion": 14.3742634,
        "meta_eccentricity": 0.00405228,
        "meta_inclination": 74.0578,
        "meta_ra_of_asc_node": 6.0278,
        "meta_arg_of_pericenter": 19.2122,
        "meta_mean_anomaly": 356.2877,
        "meta_ephemeris_type": 0,
        "meta_classification_type": "U",
        "meta_norad_cat_id": 34908,
        "meta_element_set_no": 999,
        "meta_rev_at_epoch": 87417,
        "meta_bstar": 0.00050310259,
        "meta_mean_motion_dot": 1.493e-05,
        "meta_mean_motion_ddot": 0,
        "tle_line1": "1 34908U 93036ADD 25356.33266730  .00001493  00000+0  50310-3 0  9994",
        "tle_line2": "2 34908  74.0578   6.0278 0040522  19.2122 356.2877 14.37426340874179"
      },
      "geometry": {
        "type": "Point",
        "coordinates": [
          -155.7122779167008,
          -49.938490882645354
        ]
      }
    },
    {
      "type": "Feature",
      "properties": {
        "norad_id": 34909,
        "name": "COSMOS 2251 DEB",
        "group": "cosmos-2251-debris",
        "lat": 73.99454029398836,
        "lon": 143.97519252031842,
        "alt_km": 638.1244521001681,
        "timestamp": "2025-12-23T05:02:12.425292+00:00",
        "meta_object_name": "COSMOS 2251 DEB",
        "meta_object_id": "1993-036ADE",
        "meta_epoch": "2025-12-22T10:45:29.037600",
        "meta_mean_motion": 14.77909001,
        "meta_eccentricity": 0.00838548,
        "meta_inclination": 74.0141,
        "meta_ra_of_asc_node": 57.4844,
        "meta_arg_of_pericenter": 191.04,
        "meta_mean_anomaly": 168.894,
        "meta_ephemeris_type": 0,
        "meta_classification_type": "U",
        "meta_norad_cat_id": 34909,
        "meta_element_set_no": 999,
        "meta_rev_at_epoch": 66995,
        "meta_bstar": 0.00051867971,
        "meta_mean_motion_dot": 3.926e-05,
        "meta_mean_motion_ddot": 0,
        "tle_line1": "1 34909U 93036ADE 25356.44825275  .00003926  00000+0  51868-3 0  9994",
        "tle_line2": "2 34909  74.0141  57.4844 0083854 191.0400 168.8940 14.77909001669958"
      },
      "geometry": {
        "type": "Point",
        "coordinates": [
          143.97519252031842,
          73.99454029398836
        ]
      }
    },
    {
      "type": "Feature",
      "properties": {
        "norad_id": 34910,
        "name": "COSMOS 2251 DEB",
        "group": "cosmos-2251-debris",
        "lat": 13.795051299482564,
        "lon": -99.1696886459573,
        "alt_km": 831.1732288785397,
        "timestamp": "2025-12-23T05:02:12.425301+00:00",
        "meta_object_name": "COSMOS 2251 DEB",
        "meta_object_id": "1993-036ADF",
        "meta_epoch": "2025-12-21T14:51:00.254880",
        "meta_mean_motion": 13.37701578,
        "meta_eccentricity": 0.0467839,
        "meta_inclination": 73.8764,
        "meta_ra_of_asc_node": 87.4128,
        "meta_arg_of_pericenter": 204.8988,
        "meta_mean_anomaly": 224.1409,
        "meta_ephemeris_type": 0,
        "meta_classification_type": "U",
        "meta_norad_cat_id": 34910,
        "meta_element_set_no": 999,
        "meta_rev_at_epoch": 81643,
        "meta_bstar": 0.00088658,
        "meta_mean_motion_dot": 8.55e-06,
        "meta_mean_motion_ddot": 0,
        "tle_line1": "1 34910U 93036ADF 25355.61875295  .00000855  00000+0  88658-3 0  9996",
        "tle_line2": "2 34910  73.8764  87.4128 0467839 204.8988 224.1409 13.37701578816436"
      },
      "geometry": {
        "type": "Point",
        "coordinates": [
          -99.1696886459573,
          13.795051299482564
        ]
      }
    },
    {
      "type": "Feature",
      "properties": {
        "norad_id": 34911,
        "name": "COSMOS 2251 DEB",
        "group": "cosmos-2251-debris",
        "lat": -27.878917119209987,
        "lon": 53.49815142908954,
        "alt_km": 744.995176508196,
        "timestamp": "2025-12-23T05:02:12.425311+00:00",
        "meta_object_name": "COSMOS 2251 DEB",
        "meta_object_id": "1993-036ADG",
        "meta_epoch": "2025-12-22T09:09:13.653792",
        "meta_mean_motion": 14.59385987,
        "meta_eccentricity": 0.00840574,
        "meta_inclination": 74.0405,
        "meta_ra_of_asc_node": 226.3694,
        "meta_arg_of_pericenter": 349.3785,
        "meta_mean_anomaly": 189.5016,
        "meta_ephemeris_type": 0,
        "meta_classification_type": "U",
        "meta_norad_cat_id": 34911,
        "meta_element_set_no": 999,
        "meta_rev_at_epoch": 88727,
        "meta_bstar": 0.00010848035,
        "meta_mean_motion_dot": 5.07e-06,
        "meta_mean_motion_ddot": 0,
        "tle_line1": "1 34911U 93036ADG 25356.38140803  .00000507  00000+0  10848-3 0  9992",
        "tle_line2": "2 34911  74.0405 226.3694 0084057 349.3785 189.5016 14.59385987887276"
      },
      "geometry": {
        "type": "Point",
        "coordinates": [
          53.49815142908954,
          -27.878917119209987
        ]
      }
    },
    {
      "type": "Feature",
      "properties": {
        "norad_id": 34913,
        "name": "COSMOS 2251 DEB",
        "group": "cosmos-2251-debris",
        "lat": 0.7744414033390056,
        "lon": -96.46623115750317,
        "alt_km": 764.1573499310507,
        "timestamp": "2025-12-23T05:02:12.425321+00:00",
        "meta_object_name": "COSMOS 2251 DEB",
        "meta_object_id": "1993-036ADJ",
        "meta_epoch": "2025-12-21T12:00:36.342432",
        "meta_mean_motion": 14.34639943,
        "meta_eccentricity": 0.00207047,
        "meta_inclination": 74.0285,
        "meta_ra_of_asc_node": 266.4434,
        "meta_arg_of_pericenter": 13.9816,
        "meta_mean_anomaly": 161.7419,
        "meta_ephemeris_type": 0,
        "meta_classification_type": "U",
        "meta_norad_cat_id": 34913,
        "meta_element_set_no": 999,
        "meta_rev_at_epoch": 65313,
        "meta_bstar": 4.3870278e-05,
        "meta_mean_motion_dot": 9.8e-07,
        "meta_mean_motion_ddot": 0,
        "tle_line1": "1 34913U 93036ADJ 25355.50042063  .00000098  00000+0  43870-4 0  9993",
        "tle_line2": "2 34913  74.0285 266.4434 0020704  13.9816 161.7419 14.34639943653131"
      },
      "geometry": {
        "type": "Point",
        "coordinates": [
          -96.46623115750317,
          0.7744414033390056
        ]
      }
    },
    {
      "type": "Feature",
      "properties": {
        "norad_id": 34918,
        "name": "COSMOS 2251 DEB",
        "group": "cosmos-2251-debris",
        "lat": 65.22003626959126,
        "lon": -28.134492395532316,
        "alt_km": 705.1463911550181,
        "timestamp": "2025-12-23T05:02:12.425331+00:00",
        "meta_object_name": "COSMOS 2251 DEB",
        "meta_object_id": "1993-036ADP",
        "meta_epoch": "2025-12-22T14:44:03.101856",
        "meta_mean_motion": 14.6135182,
        "meta_eccentricity": 0.00330201,
        "meta_inclination": 74.0716,
        "meta_ra_of_asc_node": 294.7864,
        "meta_arg_of_pericenter": 260.6001,
        "meta_mean_anomaly": 276.2679,
        "meta_ephemeris_type": 0,
        "meta_classification_type": "U",
        "meta_norad_cat_id": 34918,
        "meta_element_set_no": 999,
        "meta_rev_at_epoch": 65480,
        "meta_bstar": 0.0016525279,
        "meta_mean_motion_dot": 8.212e-05,
        "meta_mean_motion_ddot": 0,
        "tle_line1": "1 34918U 93036ADP 25356.61392479  .00008212  00000+0  16525-2 0  9991",
        "tle_line2": "2 34918  74.0716 294.7864 0033020 260.6001 276.2679 14.61351820654808"
      },
      "geometry": {
        "type": "Point",
        "coordinates": [
          -28.134492395532316,
          65.22003626959126
        ]
      }
    }
  ]
}